start=new Date('2022-02-24T00:00:00.000Z').valueOf();
sats=[{"MEAN_MOTION_DDOT":"0.0000000000000","TLE_LINE1":"1 48011U 21024AL  22054.81869329  .00001722  00000-0  13446-3 0  9995","EPOCH":"2022-02-23T19:38:55.100256","MEAN_MOTION_DOT":"0.00001722","RCS_SIZE":"LARGE","SITE":"AFETR","APOAPSIS":"548.234","TLE_LINE2":"2 48011  53.0568  97.5752 0001464  58.1187 301.9944 15.06397910 52540","MEAN_MOTION":"15.06397910","RA_OF_ASC_NODE":"97.5752","REV_AT_EPOCH":"5254","CLASSIFICATION_TYPE":"U","ARG_OF_PERICENTER":"58.1187","PERIAPSIS":"546.206","BSTAR":"0.00013446000000","SEMIMAJOR_AXIS":"6925.355","PERIOD":"95.592","MEAN_ANOMALY":"301.9944","CENTER_NAME":"EARTH","REF_FRAME":"TEME","OBJECT_NAME":"STARLINK-2272","NORAD_CAT_ID":"48011","DECAY_DATE":null,"COUNTRY_CODE":"US","EPHEMERIS_TYPE":"0","OBJECT_TYPE":"PAYLOAD","TIME_SYSTEM":"UTC","OBJECT_ID":"2021-024AL","ECCENTRICITY":"0.00014640","GP_ID":"196785905","ELEMENT_SET_NO":"999","MEAN_ELEMENT_THEORY":"SGP4","LAUNCH_DATE":"2021-03-24","INCLINATION":"53.0568","FILE":"3317219"},{"CENTER_NAME":"EARTH","REF_FRAME":"TEME","MEAN_ANOMALY":"310.5671","DECAY_DATE":null,"OBJECT_TYPE":"PAYLOAD","COUNTRY_CODE":"US","EPHEMERIS_TYPE":"0","OBJECT_NAME":"STARLINK-2216","NORAD_CAT_ID":"48012","OBJECT_ID":"2021-024AM","TIME_SYSTEM":"UTC","ECCENTRICITY":"0.00021350","LAUNCH_DATE":"2021-03-24","FILE":"3316306","INCLINATION":"53.0617","MEAN_ELEMENT_THEORY":"SGP4","ELEMENT_SET_NO":"999","GP_ID":"196742661","MEAN_MOTION_DOT":"0.00090701","EPOCH":"2022-02-23T11:15:39.116736","MEAN_MOTION_DDOT":"0.0000000000000","TLE_LINE1":"1 48012U 21024AM  22054.46920274  .00090701  00000-0  37324-2 0  9999","MEAN_MOTION":"15.23383129","RA_OF_ASC_NODE":"71.1139","SITE":"AFETR","RCS_SIZE":"LARGE","TLE_LINE2":"2 48012  53.0617  71.1139 0002135  49.5511 310.5671 15.23383129 52880","APOAPSIS":"497.114","PERIAPSIS":"494.179","REV_AT_EPOCH":"5288","ARG_OF_PERICENTER":"49.5511","CLASSIFICATION_TYPE":"U","SEMIMAJOR_AXIS":"6873.782","BSTAR":"0.00373240000000","PERIOD":"94.526"},{"APOAPSIS":"548.445","TLE_LINE2":"2 48013  53.0549  82.7724 0001760  46.6803 313.4332 15.06395964 52694","RCS_SIZE":"LARGE","SITE":"AFETR","RA_OF_ASC_NODE":"82.7724","MEAN_MOTION":"15.06395964","TLE_LINE1":"1 48013U 21024AN  22054.77495297  .00000996  00000-0  85756-4 0  9997","MEAN_MOTION_DDOT":"0.0000000000000","EPOCH":"2022-02-23T18:35:55.936608","MEAN_MOTION_DOT":"0.00000996","PERIOD":"95.592","BSTAR":"0.00008575600000","SEMIMAJOR_AXIS":"6925.361","ARG_OF_PERICENTER":"46.6803","CLASSIFICATION_TYPE":"U","REV_AT_EPOCH":"5269","PERIAPSIS":"546.007","NORAD_CAT_ID":"48013","OBJECT_NAME":"STARLINK-2243","COUNTRY_CODE":"US","OBJECT_TYPE":"PAYLOAD","EPHEMERIS_TYPE":"0","DECAY_DATE":null,"MEAN_ANOMALY":"313.4332","REF_FRAME":"TEME","CENTER_NAME":"EARTH","GP_ID":"196785404","ELEMENT_SET_NO":"999","MEAN_ELEMENT_THEORY":"SGP4","INCLINATION":"53.0549","FILE":"3317219","LAUNCH_DATE":"2021-03-24","ECCENTRICITY":"0.00017600","TIME_SYSTEM":"UTC","OBJECT_ID":"2021-024AN"},{"FILE":"3317219","INCLINATION":"53.0538","LAUNCH_DATE":"2021-03-24","MEAN_ELEMENT_THEORY":"SGP4","GP_ID":"196785654","ELEMENT_SET_NO":"999","ECCENTRICITY":"0.00019150","OBJECT_ID":"2021-024AP","TIME_SYSTEM":"UTC","COUNTRY_CODE":"US","OBJECT_TYPE":"PAYLOAD","EPHEMERIS_TYPE":"0","DECAY_DATE":null,"NORAD_CAT_ID":"48014","OBJECT_NAME":"STARLINK-2283","REF_FRAME":"TEME","CENTER_NAME":"EARTH","MEAN_ANOMALY":"94.3730","PERIOD":"95.644","SEMIMAJOR_AXIS":"6927.834","BSTAR":"-0.00092210000000","PERIAPSIS":"548.372","ARG_OF_PERICENTER":"52.5329","CLASSIFICATION_TYPE":"U","REV_AT_EPOCH":"359","RA_OF_ASC_NODE":"46.2477","MEAN_MOTION":"15.05589454","TLE_LINE2":"2 48014  53.0538  46.2477 0001915  52.5329  94.3730 15.05589454  3594","APOAPSIS":"551.026","SITE":"AFETR","RCS_SIZE":"LARGE","MEAN_MOTION_DOT":"-0.00013692","EPOCH":"2022-02-23T22:00:00.999936","TLE_LINE1":"1 48014U 21024AP  22054.91667824 -.00013692  00000-0 -92210-3 0  9992","MEAN_MOTION_DDOT":"0.0000000000000"},{"PERIAPSIS":"545.907","ARG_OF_PERICENTER":"56.2706","CLASSIFICATION_TYPE":"U","REV_AT_EPOCH":"359","PERIOD":"95.592","SEMIMAJOR_AXIS":"6925.331","BSTAR":"-0.00089255000000","MEAN_MOTION_DOT":"-0.00013553","EPOCH":"2022-02-23T22:00:00.999936","TLE_LINE1":"1 48016U 21024AR  22054.91667824 -.00013553  00000-0 -89255-3 0  9995","MEAN_MOTION_DDOT":"0.0000000000000","RA_OF_ASC_NODE":"32.1199","MEAN_MOTION":"15.06405668","TLE_LINE2":"2 48016  53.0551  32.1199 0001861  56.2706 212.9526 15.06405668  3592","APOAPSIS":"548.485","SITE":"AFETR","RCS_SIZE":"LARGE","ECCENTRICITY":"0.00018610","OBJECT_ID":"2021-024AR","TIME_SYSTEM":"UTC","FILE":"3317219","INCLINATION":"53.0551","LAUNCH_DATE":"2021-03-24","MEAN_ELEMENT_THEORY":"SGP4","ELEMENT_SET_NO":"999","GP_ID":"196786406","REF_FRAME":"TEME","CENTER_NAME":"EARTH","MEAN_ANOMALY":"212.9526","COUNTRY_CODE":"US","OBJECT_TYPE":"PAYLOAD","EPHEMERIS_TYPE":"0","DECAY_DATE":null,"NORAD_CAT_ID":"48016","OBJECT_NAME":"STARLINK-2284"},{"GP_ID":"196786156","ELEMENT_SET_NO":"999","MEAN_ELEMENT_THEORY":"SGP4","FILE":"3317219","INCLINATION":"53.0511","LAUNCH_DATE":"2021-03-24","ECCENTRICITY":"0.00077100","TIME_SYSTEM":"UTC","OBJECT_ID":"2021-024AS","NORAD_CAT_ID":"48017","OBJECT_NAME":"STARLINK-2239","OBJECT_TYPE":"PAYLOAD","COUNTRY_CODE":"US","EPHEMERIS_TYPE":"0","DECAY_DATE":null,"MEAN_ANOMALY":"90.6025","REF_FRAME":"TEME","CENTER_NAME":"EARTH","PERIOD":"93.129","BSTAR":"0.00311720000000","SEMIMAJOR_AXIS":"6805.846","ARG_OF_PERICENTER":"269.4098","CLASSIFICATION_TYPE":"U","REV_AT_EPOCH":"5264","PERIAPSIS":"422.464","APOAPSIS":"432.958","TLE_LINE2":"2 48017  53.0511  86.2802 0007710 269.4098  90.6025 15.46249605 52647","RCS_SIZE":"LARGE","SITE":"AFETR","RA_OF_ASC_NODE":"86.2802","MEAN_MOTION":"15.46249605","TLE_LINE1":"1 48017U 21024AS  22054.77630937  .00158794  00000-0  31172-2 0  9994","MEAN_MOTION_DDOT":"0.0000000000000","EPOCH":"2022-02-23T18:37:53.129568","MEAN_MOTION_DOT":"0.00158794"},{"CENTER_NAME":"EARTH","REF_FRAME":"TEME","MEAN_ANOMALY":"300.1396","DECAY_DATE":null,"OBJECT_TYPE":"PAYLOAD","COUNTRY_CODE":"US","EPHEMERIS_TYPE":"0","OBJECT_NAME":"STARLINK-2282","NORAD_CAT_ID":"48018","OBJECT_ID":"2021-024AT","TIME_SYSTEM":"UTC","ECCENTRICITY":"0.00016920","LAUNCH_DATE":"2021-03-24","INCLINATION":"53.0537","FILE":"3317219","MEAN_ELEMENT_THEORY":"SGP4","GP_ID":"196784904","ELEMENT_SET_NO":"999","EPOCH":"2022-02-23T20:34:00.429888","MEAN_MOTION_DOT":"0.00002421","MEAN_MOTION_DDOT":"0.0000000000000","TLE_LINE1":"1 48018U 21024AT  22054.85694942  .00002421  00000-0  18137-3 0  9992","MEAN_MOTION":"15.06394125","RA_OF_ASC_NODE":"102.3918","SITE":"AFETR","RCS_SIZE":"LARGE","TLE_LINE2":"2 48018  53.0537 102.3918 0001692  59.9761 300.1396 15.06394125 52482","APOAPSIS":"548.403","PERIAPSIS":"546.060","REV_AT_EPOCH":"5248","CLASSIFICATION_TYPE":"U","ARG_OF_PERICENTER":"59.9761","SEMIMAJOR_AXIS":"6925.367","BSTAR":"0.00018137000000","PERIOD":"95.593"},{"PERIAPSIS":"546.115","ARG_OF_PERICENTER":"60.5585","CLASSIFICATION_TYPE":"U","REV_AT_EPOCH":"5255","PERIOD":"95.593","SEMIMAJOR_AXIS":"6925.379","BSTAR":"0.00006724200000","MEAN_MOTION_DOT":"0.00000720","EPOCH":"2022-02-23T19:48:54.913248","TLE_LINE1":"1 48019U 21024AU  22054.82563557  .00000720  00000-0  67242-4 0  9999","MEAN_MOTION_DDOT":"0.0000000000000","RA_OF_ASC_NODE":"92.5509","MEAN_MOTION":"15.06389915","TLE_LINE2":"2 48019  53.0552  92.5509 0001631  60.5585 299.5566 15.06389915 52550","APOAPSIS":"548.374","SITE":"AFETR","RCS_SIZE":"LARGE","ECCENTRICITY":"0.00016310","OBJECT_ID":"2021-024AU","TIME_SYSTEM":"UTC","INCLINATION":"53.0552","FILE":"3317219","LAUNCH_DATE":"2021-03-24","MEAN_ELEMENT_THEORY":"SGP4","GP_ID":"196785154","ELEMENT_SET_NO":"999","REF_FRAME":"TEME","CENTER_NAME":"EARTH","MEAN_ANOMALY":"299.5566","OBJECT_TYPE":"PAYLOAD","COUNTRY_CODE":"US","EPHEMERIS_TYPE":"0","DECAY_DATE":null,"NORAD_CAT_ID":"48019","OBJECT_NAME":"STARLINK-2285"},{"PERIOD":"95.593","BSTAR":"0.00232990000000","SEMIMAJOR_AXIS":"6925.404","CLASSIFICATION_TYPE":"U","ARG_OF_PERICENTER":"58.8942","REV_AT_EPOCH":"5273","PERIAPSIS":"546.116","APOAPSIS":"548.421","TLE_LINE2":"2 48020  53.0545  47.1196 0001664  58.8942  47.8511 15.06382017 52735","RCS_SIZE":"LARGE","SITE":"AFETR","RA_OF_ASC_NODE":"47.1196","MEAN_MOTION":"15.06382017","TLE_LINE1":"1 48020U 21024AV  22054.91667824  .00034576  00000-0  23299-2 0  9991","MEAN_MOTION_DDOT":"0.0000000000000","MEAN_MOTION_DOT":"0.00034576","EPOCH":"2022-02-23T22:00:00.999936","ELEMENT_SET_NO":"999","GP_ID":"196750551","MEAN_ELEMENT_THEORY":"SGP4","FILE":"3316592","INCLINATION":"53.0545","LAUNCH_DATE":"2021-03-24","ECCENTRICITY":"0.00016640","TIME_SYSTEM":"UTC","OBJECT_ID":"2021-024AV","NORAD_CAT_ID":"48020","OBJECT_NAME":"STARLINK-2294","COUNTRY_CODE":"US","OBJECT_TYPE":"PAYLOAD","EPHEMERIS_TYPE":"0","DECAY_DATE":null,"MEAN_ANOMALY":"47.8511","REF_FRAME":"TEME","CENTER_NAME":"EARTH"},{"TIME_SYSTEM":"UTC","OBJECT_ID":"2021-024AW","ECCENTRICITY":"0.00018340","LAUNCH_DATE":"2021-03-24","INCLINATION":"53.0567","FILE":"3317219","GP_ID":"196786657","ELEMENT_SET_NO":"999","MEAN_ELEMENT_THEORY":"SGP4","CENTER_NAME":"EARTH","REF_FRAME":"TEME","MEAN_ANOMALY":"306.2836","DECAY_DATE":null,"COUNTRY_CODE":"US","OBJECT_TYPE":"PAYLOAD","EPHEMERIS_TYPE":"0","OBJECT_NAME":"STARLINK-2301","NORAD_CAT_ID":"48021","PERIAPSIS":"545.941","REV_AT_EPOCH":"5312","CLASSIFICATION_TYPE":"U","ARG_OF_PERICENTER":"53.8323","BSTAR":"0.00017067000000","SEMIMAJOR_AXIS":"6925.347","PERIOD":"95.592","EPOCH":"2022-02-23T19:32:59.824320","MEAN_MOTION_DOT":"0.00002261","MEAN_MOTION_DDOT":"0.0000000000000","TLE_LINE1":"1 48021U 21024AW  22054.81458130  .00002261  00000-0  17067-3 0  9992","MEAN_MOTION":"15.06400658","RA_OF_ASC_NODE":"52.5956","RCS_SIZE":"LARGE","SITE":"AFETR","APOAPSIS":"548.482","TLE_LINE2":"2 48021  53.0567  52.5956 0001834  53.8323 306.2836 15.06400658 53129"}];
